ONEWEB-0667             
1 55827U 23029AH  26161.05802307  .00000026  00000+0  30994-4 0  9990
2 55827  87.9195 275.8509 0001809  96.7550 263.3789 13.20771238160205
ONEWEB-0669             
1 55828U 23029AJ  26161.05296897  .00000040  00000+0  66008-4 0  9993
2 55828  87.9189 275.8634 0002377  90.3844 269.7562 13.20771260160209
ONEWEB-0670             
1 55829U 23029AK  26160.90498835 -.00000016  00000+0 -77191-4 0  9993
2 55829  87.8950 291.1933 0001762  86.7484 273.3848 13.14502347158479
ONEWEB-0671             
1 55830U 23029AL  26161.16416380  .00000021  00000+0  19465-4 0  9993
2 55830  87.9164 306.3754 0001692  94.2701 265.8626 13.19723755157974
ONEWEB-0672             
1 55831U 23029AM  26161.04791313  .00000014  00000+0  29137-5 0  9993
2 55831  87.9188 275.8577 0002227 101.3194 258.8190 13.20771910160201
ONEWEB-0673             
1 55832U 23029AN  26161.14127247  .00000023  00000+0  26192-4 0  9991
2 55832  87.9170 306.3710 0001736  93.7020 266.4311 13.19726089157973
ONEWEB-0674             
1 55833U 23029AP  26161.10162290  .00000046  00000+0  88776-4 0  9996
2 55833  87.8946 291.1310 0001801  86.7351 273.3985 13.14503989158481
ONEWEB-0675             
1 55834U 23029AQ  26161.15627740  .00000018  00000+0  11575-4 0  9990
2 55834  87.9163 306.3784 0002019 105.3446 254.7910 13.19723908157999
ONEWEB-0720             
1 55835U 23029AR  26161.14837415  .00000037  00000+0  60713-4 0  9991
2 55835  87.9162 306.3801 0001545 100.3077 259.8230 13.19724058157917
ONEWEB-0537             
1 56046U 23043A   26161.20287900  .00000043  00000+0  79912-4 0  9995
2 56046  87.9101 230.1583 0002258 101.4856 258.6529 13.16594468158045
ONEWEB-0538             
1 56047U 23043B   26161.19654737  .00000074  00000+0  16013-3 0  9996
2 56047  87.9103 230.1619 0002042 106.6157 253.5199 13.16594328158053
ONEWEB-0546             
1 56048U 23043C   26161.18388285  .00000129  00000+0  30436-3 0  9994
2 56048  87.9103 230.1643 0002731 101.7173 258.4265 13.16594519158049
ONEWEB-0547             
1 56049U 23043D   26161.20835802  .00000056  00000+0  10378-3 0  9992
2 56049  87.9261 245.3623 0001896 103.5259 256.6087 13.21825574157301
ONEWEB-0548             
1 56050U 23043E   26161.20841267 -.00000027  00000+0 -10406-3 0  9998
2 56050  87.9099 230.1559 0002105  86.2740 273.8632 13.16595752158043
ONEWEB-0549             
1 56051U 23043F   26161.20247518  .00000045  00000+0  78100-4 0  9992
2 56051  87.9255 245.3703 0001992 110.8133 249.3214 13.21825353157301
ONEWEB-0550             
1 56052U 23043G   26161.18902933  .00000083  00000+0  16978-3 0  9995
2 56052  87.9256 245.3704 0001969  93.7756 266.3604 13.21825336157301
ONEWEB-0551             
1 56053U 23043H   26161.00584337 -.00000142  00000+0 -41114-3 0  9999
2 56053  87.9000 260.6569 0001807 110.5790 249.5534 13.15549313155455
ONEWEB-0552             
1 56054U 23043J   26161.18396505  .00000116  00000+0  24882-3 0  9999
2 56054  87.9253 245.3771 0001828  99.5690 260.5651 13.21827984157308
ONEWEB-0553             
1 56055U 23043K   26161.19020991 -.00001076  00000+0 -28473-2 0  9991
2 56055  87.9101 230.1636 0002358 103.2774 256.8620 13.16598480158055
ONEWEB-0554             
1 56056U 23043L   26161.17753566  .00000084  00000+0  18622-3 0  9993
2 56056  87.9098 230.1753 0002082  84.1463 275.9905 13.16585515158038
ONEWEB-0555             
1 56057U 23043M   26161.13953547 -.00000004  00000+0 -44954-4 0  9993
2 56057  87.9102 230.1708 0002672  99.4906 260.6527 13.16596489158034
ONEWEB-0557             
1 56058U 23043N   26161.15379239 -.00000043  00000+0 -14626-3 0  9991
2 56058  87.9103 230.1781 0002991  78.6541 281.4926 13.16594241158033
ONEWEB-0558             
1 56059U 23043P   26160.95014599  .00000014  00000+0  25046-5 0  9990
2 56059  87.9254 245.4184 0002066 109.0984 251.0374 13.21827175157287
ONEWEB-0559             
1 56060U 23043Q   26161.01406098  .00000061  00000+0  11566-3 0  9991
2 56060  87.9258 245.4004 0001834 104.2909 255.8429 13.21827041157308
ONEWEB-0566             
1 56061U 23043R   26160.93165309 -.00000044  00000+0 -13787-3 0  9999
2 56061  87.9255 245.4149 0001789 107.3028 252.8301 13.21827143157276
ONEWEB-0568             
1 56062U 23043S   26161.17121523  .00000090  00000+0  20124-3 0  9999
2 56062  87.9098 230.1644 0002339  98.8329 261.3067 13.16593733158053
ONEWEB-0574             
1 56063U 23043T   26160.92491126 -.00000113  00000+0 -30474-3 0  9998
2 56063  87.9264 245.4185 0002133  94.6611 265.4767 13.21827819157319
ONEWEB-0575             
1 56064U 23043U   26161.16488299  .00000021  00000+0  20036-4 0  9993
2 56064  87.9098 230.1621 0002341  90.6587 269.4812 13.16593144158041
ONEWEB-0576             
1 56065U 23043V   26161.14587513 -.00000007  00000+0 -51630-4 0  9991
2 56065  87.9103 230.1733 0002208  93.8211 266.3173 13.16593649158039
ONEWEB-0577             
1 56066U 23043W   26161.15221298  .00000001  00000+0 -31171-4 0  9999
2 56066  87.9100 230.1697 0002442  80.9489 279.1918 13.16593253158063
