OBJECT_NAME,OBJECT_ID,EPOCH,MEAN_MOTION,ECCENTRICITY,INCLINATION,RA_OF_ASC_NODE,ARG_OF_PERICENTER,MEAN_ANOMALY,EPHEMERIS_TYPE,CLASSIFICATION_TYPE,NORAD_CAT_ID,ELEMENT_SET_NO,REV_AT_EPOCH,BSTAR,MEAN_MOTION_DOT,MEAN_MOTION_DDOT
ONEWEB-0667,2023-029AH,2026-06-10T01:23:33.193248,13.20771238,.00018098,87.9195,275.8509,96.7550,263.3789,0,U,55827,999,16020,.30993751E-4,.26E-6,0
ONEWEB-0669,2023-029AJ,2026-06-10T01:16:16.519008,13.20771260,.00023773,87.9189,275.8634,90.3844,269.7562,0,U,55828,999,16020,.66008124E-4,.4E-6,0
ONEWEB-0670,2023-029AK,2026-06-09T21:43:10.993440,13.14502347,.00017621,87.8950,291.1933,86.7484,273.3848,0,U,55829,999,15847,-.77190881E-4,-.16E-6,0
ONEWEB-0671,2023-029AL,2026-06-10T03:56:23.752320,13.19723755,.00016923,87.9164,306.3754,94.2701,265.8626,0,U,55830,999,15797,.19464549E-4,.21E-6,0
ONEWEB-0672,2023-029AM,2026-06-10T01:08:59.694432,13.20771910,.00022274,87.9188,275.8577,101.3194,258.8190,0,U,55831,999,16020,.2913662E-5,.14E-6,0
ONEWEB-0673,2023-029AN,2026-06-10T03:23:25.941408,13.19726089,.00017363,87.9170,306.3710,93.7020,266.4311,0,U,55832,999,15797,.26192029E-4,.23E-6,0
ONEWEB-0674,2023-029AP,2026-06-10T02:26:20.218560,13.14503989,.00018013,87.8946,291.1310,86.7351,273.3985,0,U,55833,999,15848,.88775552E-4,.46E-6,0
ONEWEB-0675,2023-029AQ,2026-06-10T03:45:02.367360,13.19723908,.00020199,87.9163,306.3784,105.3446,254.7910,0,U,55834,999,15799,.11575258E-4,.18E-6,0
ONEWEB-0720,2023-029AR,2026-06-10T03:33:39.526560,13.19724058,.00015452,87.9162,306.3801,100.3077,259.8230,0,U,55835,999,15791,.60713026E-4,.37E-6,0
ONEWEB-0537,2023-043A,2026-06-10T04:52:08.745600,13.16594468,.00022589,87.9101,230.1583,101.4856,258.6529,0,U,56046,999,15804,.79911974E-4,.43E-6,0
ONEWEB-0538,2023-043B,2026-06-10T04:43:01.692768,13.16594328,.00020422,87.9103,230.1619,106.6157,253.5199,0,U,56047,999,15805,.16012517E-3,.74E-6,0
ONEWEB-0546,2023-043C,2026-06-10T04:24:47.478240,13.16594519,.00027315,87.9103,230.1643,101.7173,258.4265,0,U,56048,999,15804,.30436281E-3,.129E-5,0
ONEWEB-0547,2023-043D,2026-06-10T05:00:02.132928,13.21825574,.00018965,87.9261,245.3623,103.5259,256.6087,0,U,56049,999,15730,.10378131E-3,.56E-6,0
ONEWEB-0548,2023-043E,2026-06-10T05:00:06.854688,13.16595752,.00021054,87.9099,230.1559,86.2740,273.8632,0,U,56050,999,15804,-.104055E-3,-.27E-6,0
ONEWEB-0549,2023-043F,2026-06-10T04:51:33.855552,13.21825353,.00019925,87.9255,245.3703,110.8133,249.3214,0,U,56051,999,15730,.78099758E-4,.45E-6,0
ONEWEB-0550,2023-043G,2026-06-10T04:32:12.134112,13.21825336,.00019697,87.9256,245.3704,93.7756,266.3604,0,U,56052,999,15730,.16977552E-3,.83E-6,0
ONEWEB-0551,2023-043H,2026-06-10T00:08:24.867168,13.15549313,.00018076,87.9000,260.6569,110.5790,249.5534,0,U,56053,999,15545,-.41113959E-3,-.142E-5,0
ONEWEB-0552,2023-043J,2026-06-10T04:24:54.580320,13.21827984,.00018287,87.9253,245.3771,99.5690,260.5651,0,U,56054,999,15730,.2488172E-3,.116E-5,0
ONEWEB-0553,2023-043K,2026-06-10T04:33:54.136224,13.16598480,.00023589,87.9101,230.1636,103.2774,256.8620,0,U,56055,999,15805,-.28472587E-2,-.1076E-4,0
ONEWEB-0554,2023-043L,2026-06-10T04:15:39.081024,13.16585515,.00020824,87.9098,230.1753,84.1463,275.9905,0,U,56056,999,15803,.18621943E-3,.84E-6,0
ONEWEB-0555,2023-043M,2026-06-10T03:20:55.864608,13.16596489,.00026726,87.9102,230.1708,99.4906,260.6527,0,U,56057,999,15803,-.44953982E-4,-.4E-7,0
ONEWEB-0557,2023-043N,2026-06-10T03:41:27.662496,13.16594241,.00029912,87.9103,230.1781,78.6541,281.4926,0,U,56058,999,15803,-.14626289E-3,-.43E-6,0
ONEWEB-0558,2023-043P,2026-06-09T22:48:12.613536,13.21827175,.0002066,87.9254,245.4184,109.0984,251.0374,0,U,56059,999,15728,.2504614E-5,.14E-6,0
ONEWEB-0559,2023-043Q,2026-06-10T00:20:14.868672,13.21827041,.00018343,87.9258,245.4004,104.2909,255.8429,0,U,56060,999,15730,.11566207E-3,.61E-6,0
ONEWEB-0566,2023-043R,2026-06-09T22:21:34.826976,13.21827143,.0001789,87.9255,245.4149,107.3028,252.8301,0,U,56061,999,15727,-.13786688E-3,-.44E-6,0
ONEWEB-0568,2023-043S,2026-06-10T04:06:32.995872,13.16593733,.00023391,87.9098,230.1644,98.8329,261.3067,0,U,56062,999,15805,.20124405E-3,.9E-6,0
ONEWEB-0574,2023-043T,2026-06-09T22:11:52.332864,13.21827819,.00021336,87.9264,245.4185,94.6611,265.4767,0,U,56063,999,15731,-.30473594E-3,-.113E-5,0
ONEWEB-0575,2023-043U,2026-06-10T03:57:25.890336,13.16593144,.00023418,87.9098,230.1621,90.6587,269.4812,0,U,56064,999,15804,.20035514E-4,.21E-6,0
ONEWEB-0576,2023-043V,2026-06-10T03:30:03.611232,13.16593649,.00022084,87.9103,230.1733,93.8211,266.3173,0,U,56065,999,15803,-.51629983E-4,-.7E-7,0
ONEWEB-0577,2023-043W,2026-06-10T03:39:11.201472,13.16593253,.00024421,87.9100,230.1697,80.9489,279.1918,0,U,56066,999,15806,-.31171244E-4,.1E-7,0
